TIANMU-1 08             
1 57400U 23101B   26066.00237819  .00000346  00000+0  14775-4 0  9993
2 57400  97.2717 118.7901 0006380 134.2174 225.9592 15.29204229146020
STARLINK-31416          
1 59355U 24060H   26068.56825086 -.00008558  00000+0 -30159-3 0  9999
2 59355  43.0026 260.5943 0001286 274.5772  85.4932 15.27606821110049
